ONEWEB-0248             
1 48798U 21045AH  26075.09433620  .00000207  00000+0  51678-3 0  9993
2 48798  87.8940 277.7705 0002153  95.5747 264.5629 13.15551182232178
ONEWEB-0250             
1 48968U 21060B   26075.18011045  .00000093  00000+0  18135-3 0  9996
2 48968  87.9010 245.3310 0002493  78.3803 281.7613 13.25828464227896
ONEWEB-0256             
1 48974U 21060H   26075.20203000  .00000015  00000+0  55933-5 0  9993
2 48974  87.9012 247.2778 0001574  97.6983 262.4327 13.16595402227392
ONEWEB-0261             
1 48979U 21060N   26075.19091790  .00000145  00000+0  34483-3 0  9996
2 48979  87.9004 247.2794 0001916 106.7462 253.3879 13.16593072227426
ONEWEB-0268             
1 48986U 21060V   26075.16482273  .00000136  00000+0  32242-3 0  9992
2 48986  87.9011 247.2784 0001638  99.1883 260.9433 13.16594552227619
ONEWEB-0273             
1 48991U 21060AA  26075.19490466 -.00000055  00000+0 -17638-3 0  9998
2 48991  87.9010 247.2743 0001836  99.2529 260.8810 13.16593805227356
ONEWEB-0279             
1 48997U 21060AG  26075.02549419  .00000017  00000+0  11395-4 0  9990
2 48997  87.9014 247.2970 0001786 105.7415 254.3913 13.16593936227367
ONEWEB-0284             
1 49002U 21060AM  26075.21074139  .00000013  00000+0  89412-6 0  9994
2 49002  87.9010 247.2611 0001927  89.0782 271.0570 13.16593649227367
ONEWEB-0289             
1 49079U 21075E   26075.10758457  .00000030  00000+0  44536-4 0  9999
2 49079  87.9164  24.3613 0002276  78.3062 281.8325 13.17648013221949
ONEWEB-0296             
1 49085U 21075L   26075.07210203 -.00000476  00000+0 -13575-2 0  9997
2 49085  87.9016   9.1435 0001921  68.2152 291.9181 13.12442905222365
ONEWEB-0301             
1 49090U 21075R   26075.07886149 -.00000313  00000+0 -90422-3 0  9998
2 49090  87.9011   9.1355 0001565  87.2477 272.8831 13.12441511222353
ONEWEB-0310             
1 49096U 21075X   26075.07378055 -.00000367  00000+0 -10545-2 0  9992
2 49096  87.9008   9.1674 0001884  79.5790 280.5551 13.12441678222972
ONEWEB-0315             
1 49101U 21075AC  26075.19916965  .00000313  00000+0  83540-3 0  9995
2 49101  87.9011   9.1003 0001473  71.1105 289.0183 13.12442067222979
