
    {
      "objectName": "ONEWEB-0248",
      "objectId": "2021-045AH",
      "noradId": 48798,
      "epochUtc": "2026-03-16T02:15:50.647680Z",
      "meanMotionRevPerDay": 13.15551182,
      "eccentricity": 0.00021534,
      "inclinationDeg": 87.894,
      "raanDeg": 277.7705,
      "argPerigeeDeg": 95.5747,
      "meanAnomalyDeg": 264.5629,
      "bstar": 0.00051677703,
      "meanMotionDot": 0.00000207,
      "meanMotionDdot": 0,
      "elementSetNo": 999,
      "revAtEpoch": 23217
    },
    {
      "objectName": "ONEWEB-0250",
      "objectId": "2021-060B",
      "noradId": 48968,
      "epochUtc": "2026-03-16T04:19:21.542880Z",
      "meanMotionRevPerDay": 13.25828464,
      "eccentricity": 0.0002493,
      "inclinationDeg": 87.901,
      "raanDeg": 245.331,
      "argPerigeeDeg": 78.3803,
      "meanAnomalyDeg": 281.7613,
      "bstar": 0.000181346,
      "meanMotionDot": 9.3e-7,
      "meanMotionDdot": 0,
      "elementSetNo": 999,
      "revAtEpoch": 22789
    },
    {
      "objectName": "ONEWEB-0256",
      "objectId": "2021-060H",
      "noradId": 48974,
      "epochUtc": "2026-03-16T04:50:55.392000Z",
      "meanMotionRevPerDay": 13.16595402,
      "eccentricity": 0.00015746,
      "inclinationDeg": 87.9012,
      "raanDeg": 247.2778,
      "argPerigeeDeg": 97.6983,
      "meanAnomalyDeg": 262.4327,
      "bstar": 0.000005593274,
      "meanMotionDot": 1.5e-7,
      "meanMotionDdot": 0,
      "elementSetNo": 999,
      "revAtEpoch": 22739
    },
    {
      "objectName": "ONEWEB-0261",
      "objectId": "2021-060N",
      "noradId": 48979,
      "epochUtc": "2026-03-16T04:34:55.306560Z",
      "meanMotionRevPerDay": 13.16593072,
      "eccentricity": 0.00019164,
      "inclinationDeg": 87.9004,
      "raanDeg": 247.2794,
      "argPerigeeDeg": 106.7462,
      "meanAnomalyDeg": 253.3879,
      "bstar": 0.00034482975,
      "meanMotionDot": 0.00000145,
      "meanMotionDdot": 0,
      "elementSetNo": 999,
      "revAtEpoch": 22742
    },
    {
      "objectName": "ONEWEB-0268",
      "objectId": "2021-060V",
      "noradId": 48986,
      "epochUtc": "2026-03-16T03:57:20.683872Z",
      "meanMotionRevPerDay": 13.16594552,
      "eccentricity": 0.00016388,
      "inclinationDeg": 87.9011,
      "raanDeg": 247.2784,
      "argPerigeeDeg": 99.1883,
      "meanAnomalyDeg": 260.9433,
      "bstar": 0.00032242129,
      "meanMotionDot": 0.00000136,
      "meanMotionDdot": 0,
      "elementSetNo": 999,
      "revAtEpoch": 22761
    },
    {
      "objectName": "ONEWEB-0273",
      "objectId": "2021-060AA",
      "noradId": 48991,
      "epochUtc": "2026-03-16T04:40:39.762624Z",
      "meanMotionRevPerDay": 13.16593805,
      "eccentricity": 0.00018362,
      "inclinationDeg": 87.901,
      "raanDeg": 247.2743,
      "argPerigeeDeg": 99.2529,
      "meanAnomalyDeg": 260.881,
      "bstar": -0.00017638198,
      "meanMotionDot": -5.5e-7,
      "meanMotionDdot": 0,
      "elementSetNo": 999,
      "revAtEpoch": 22735
    },
    {
      "objectName": "ONEWEB-0279",
      "objectId": "2021-060AG",
      "noradId": 48997,
      "epochUtc": "2026-03-16T00:36:42.698016Z",
      "meanMotionRevPerDay": 13.16593936,
      "eccentricity": 0.00017866,
      "inclinationDeg": 87.9014,
      "raanDeg": 247.297,
      "argPerigeeDeg": 105.7415,
      "meanAnomalyDeg": 254.3913,
      "bstar": 0.000011395256,
      "meanMotionDot": 1.7e-7,
      "meanMotionDdot": 0,
      "elementSetNo": 999,
      "revAtEpoch": 22736
    },
    {
      "objectName": "ONEWEB-0284",
      "objectId": "2021-060AM",
      "noradId": 49002,
      "epochUtc": "2026-03-16T05:03:28.056096Z",
      "meanMotionRevPerDay": 13.16593649,
      "eccentricity": 0.00019271,
      "inclinationDeg": 87.901,
      "raanDeg": 247.2611,
      "argPerigeeDeg": 89.0782,
      "meanAnomalyDeg": 271.057,
      "bstar": 8.94116e-7,
      "meanMotionDot": 1.3e-7,
      "meanMotionDdot": 0,
      "elementSetNo": 999,
      "revAtEpoch": 22736
    },
    {
      "objectName": "ONEWEB-0289",
      "objectId": "2021-075E",
      "noradId": 49079,
      "epochUtc": "2026-03-16T02:34:55.306848Z",
      "meanMotionRevPerDay": 13.17648013,
      "eccentricity": 0.00022766,
      "inclinationDeg": 87.9164,
      "raanDeg": 24.3613,
      "argPerigeeDeg": 78.3062,
      "meanAnomalyDeg": 281.8325,
      "bstar": 0.000044536446,
      "meanMotionDot": 3e-7,
      "meanMotionDdot": 0,
      "elementSetNo": 999,
      "revAtEpoch": 22194
    },
    {
      "objectName": "ONEWEB-0296",
      "objectId": "2021-075L",
      "noradId": 49085,
      "epochUtc": "2026-03-16T01:43:49.615392Z",
      "meanMotionRevPerDay": 13.12442905,
      "eccentricity": 0.00019212,
      "inclinationDeg": 87.9016,
      "raanDeg": 9.1435,
      "argPerigeeDeg": 68.2152,
      "meanAnomalyDeg": 291.9181,
      "bstar": -0.0013575169,
      "meanMotionDot": -0.00000476,
      "meanMotionDdot": 0,
      "elementSetNo": 999,
      "revAtEpoch": 22236
    },
    {
      "objectName": "ONEWEB-0301",
      "objectId": "2021-075R",
      "noradId": 49090,
      "epochUtc": "2026-03-16T01:53:33.632736Z",
      "meanMotionRevPerDay": 13.12441511,
      "eccentricity": 0.00015655,
      "inclinationDeg": 87.9011,
      "raanDeg": 9.1355,
      "argPerigeeDeg": 87.2477,
      "meanAnomalyDeg": 272.8831,
      "bstar": -0.00090421926,
      "meanMotionDot": -0.00000313,
      "meanMotionDdot": 0,
      "elementSetNo": 999,
      "revAtEpoch": 22235
    },
    {
      "objectName": "ONEWEB-0310",
      "objectId": "2021-075X",
      "noradId": 49096,
      "epochUtc": "2026-03-16T01:46:14.639520Z",
      "meanMotionRevPerDay": 13.12441678,
      "eccentricity": 0.00018841,
      "inclinationDeg": 87.9008,
      "raanDeg": 9.1674,
      "argPerigeeDeg": 79.579,
      "meanAnomalyDeg": 280.5551,
      "bstar": -0.001054502,
      "meanMotionDot": -0.00000367,
      "meanMotionDdot": 0,
      "elementSetNo": 999,
      "revAtEpoch": 22297
    },
    {
      "objectName": "ONEWEB-0315",
      "objectId": "2021-075AC",
      "noradId": 49101,
      "epochUtc": "2026-03-16T04:46:48.257760Z",
      "meanMotionRevPerDay": 13.12442067,
      "eccentricity": 0.00014734,
      "inclinationDeg": 87.9011,
      "raanDeg": 9.1003,
      "argPerigeeDeg": 71.1105,
      "meanAnomalyDeg": 289.0183,
      "bstar": 0.00083540395,
      "meanMotionDot": 0.00000313,
      "meanMotionDdot": 0,
      "elementSetNo": 999,
      "revAtEpoch": 22297
    }